QIANFAN-49              
1 62250U 24232P   25238.92793095  .00000036  00000+0  36733-4 0  9996
2 62250  88.9942  52.1172 0015420 140.9148 219.3120 13.50957992 53280
QIANFAN-50              
1 62251U 24232Q   25238.95272269  .00000042  00000+0  45691-4 0  9995
2 62251  88.9947  52.1169 0017032 142.6834 217.5504 13.50964588 53313
QIANFAN-51              
1 62252U 24232R   25238.93627851  .00000028  00000+0  24743-4 0  9994
2 62252  88.9941  52.1191 0014430 145.1750 215.0349 13.50967063 53307
QIANFAN-52              
1 62253U 24232S   25238.89100328  .00000042  00000+0  45558-4 0  9998
2 62253  88.9937  52.0014 0016632 138.9101 221.3306 13.50961555 53383
QIANFAN-53              
1 62254U 24232T   25238.94449861  .00000025  00000+0  20418-4 0  9992
2 62254  88.9945  52.0924 0015494 139.4317 220.7992 13.50965574 53359
QIANFAN-54              
1 62255U 24232U   25238.91158455  .00000047  00000+0  53991-4 0  9992
2 62255  88.9936  51.7835 0002760 142.1359 217.9987 13.50967747 84851
QIANFAN-55              
1 62785U 25016A   25238.93738386  .00000112  00000+0  15551-3 0  9992
2 62785  88.9810 114.3418 0016032 305.2293  54.7357 13.50968531 32638
QIANFAN-56              
1 62786U 25016B   25238.95399778  .00000105  00000+0  14436-3 0  9996
2 62786  88.9783 114.2059 0014759 308.2967  51.6856 13.50960267 32686
